[{"OBJECT_NAME":"STARLINK-6206","OBJECT_ID":"2023-083A","EPOCH":"2026-03-09T01:50:48.375456","MEAN_MOTION":15.02539468,"ECCENTRICITY":0.00014325,"INCLINATION":43.0017,"RA_OF_ASC_NODE":85.5011,"ARG_OF_PERICENTER":272.9403,"MEAN_ANOMALY":87.1275,"EPHEMERIS_TYPE":0,"CLASSIFICATION_TYPE":"U","NORAD_CAT_ID":56876,"ELEMENT_SET_NO":999,"REV_AT_EPOCH":15157,"BSTAR":-2.0459368e-5,"MEAN_MOTION_DOT":-4.8e-6,"MEAN_MOTION_DDOT":0},{"OBJECT_NAME":"CZ-6A DEB","OBJECT_ID":"2024-140FV","EPOCH":"2026-03-09T14:13:09.917760","MEAN_MOTION":15.12617909,"ECCENTRICITY":0.0033796,"INCLINATION":89.006,"RA_OF_ASC_NODE":281.0752,"ARG_OF_PERICENTER":172.4402,"MEAN_ANOMALY":187.7356,"EPHEMERIS_TYPE":0,"CLASSIFICATION_TYPE":"U","NORAD_CAT_ID":60794,"ELEMENT_SET_NO":999,"REV_AT_EPOCH":8371,"BSTAR":0.0056743,"MEAN_MOTION_DOT":0.0010168,"MEAN_MOTION_DDOT":0}]
